sat14139
1 14139U 83060C   20046.84139548 -.00000137  00000-0 -42551-3 0  9992
2 14139  96.6667  96.0766 0000203 110.7589 249.3544 12.93869863 36667
